{
    "links": {
        "self": "http://www.neowsapp.com/rest/v1/neo/3748468?api_key=iIulBulltgU6a56xZRHN4H3l9WmuAYTsLGpBGhQ2"
    },
    "id": "3748468",
    "neo_reference_id": "3748468",
    "name": "(2016 FQ12)",
    "designation": "2016 FQ12",
    "nasa_jpl_url": "http://ssd.jpl.nasa.gov/sbdb.cgi?sstr=3748468",
    "absolute_magnitude_h": 25.4,
    "estimated_diameter": {
        "kilometers": {
            "estimated_diameter_min": 0.022108281,
            "estimated_diameter_max": 0.0494356193
        },
        "meters": {
            "estimated_diameter_min": 22.1082810359,
            "estimated_diameter_max": 49.435619262
        },
        "miles": {
            "estimated_diameter_min": 0.0137374447,
            "estimated_diameter_max": 0.0307178602
        },
        "feet": {
            "estimated_diameter_min": 72.5337327539,
            "estimated_diameter_max": 162.1903570994
        }
    },
    "is_potentially_hazardous_asteroid": false,
    "close_approach_data": [
        {
            "close_approach_date": "2016-03-16",
            "close_approach_date_full": "2016-Mar-16 03:47",
            "epoch_date_close_approach": 1458100020000,
            "relative_velocity": {
                "kilometers_per_second": "9.9103217824",
                "kilometers_per_hour": "35677.1584166212",
                "miles_per_hour": "22168.3987950389"
            },
            "miss_distance": {
                "astronomical": "0.2092100781",
                "lunar": "81.3827203809",
                "kilometers": "31297382.066293647",
                "miles": "19447291.4331084486"
            },
            "orbiting_body": "Earth"
        }
    ],
    "orbital_data": {
        "orbit_id": "4",
        "orbit_determination_date": "2017-04-06 08:27:12",
        "first_observation_date": "2016-03-28",
        "last_observation_date": "2016-04-01",
        "data_arc_in_days": 4,
        "observations_used": 15,
        "orbit_uncertainty": "9",
        "minimum_orbit_intersection": ".208147",
        "jupiter_tisserand_invariant": "4.103",
        "epoch_osculation": "2457477.5",
        "eccentricity": ".3540320334705113",
        "semi_major_axis": "1.68554490675093",
        "inclination": "17.35145332988533",
        "ascending_node_longitude": "196.3386629424879",
        "orbital_period": "799.298353356963",
        "perihelion_distance": "1.088808015908035",
        "perihelion_argument": "296.7451105264543",
        "aphelion_distance": "2.282281797593826",
        "perihelion_time": "2457419.165855273366",
        "mean_anomaly": "26.2734084380249",
        "mean_motion": ".4503950226946428",
        "equinox": "J2000",
        "orbit_class": {
            "orbit_class_type": "AMO",
            "orbit_class_description": "Near-Earth asteroid orbits similar to that of 1221 Amor",
            "orbit_class_range": "1.017 AU < q (perihelion) < 1.3 AU"
        }
    },
    "is_sentry_object": false
}